QIANFAN-9               
1 60387U 24140J   25298.46845663  .00000032  00000+0  30839-4 0  9994
2 60387  88.9736 304.3415 0015653 344.5172  15.5498 13.50974688 60811
QIANFAN-10              
1 60388U 24140K   25298.47264108  .00000019  00000+0  11620-4 0  9997
2 60388  88.9744 303.6835 0013375 321.1339  38.8850 13.50971317 60944
QIANFAN-11              
1 60389U 24140L   25298.43555741  .00000041  00000+0  45355-4 0  9997
2 60389  88.9671 304.3107 0013684 345.3176  14.7576 13.50972062 60591
QIANFAN-12              
1 60390U 24140M   25298.53014534  .00000048  00000+0  56417-4 0  9998
2 60390  88.9714 304.3231 0012810 354.2106   5.8895 13.50972417 60736
QIANFAN-13              
1 60391U 24140N   25298.50135964  .00000049  00000+0  57235-4 0  9997
2 60391  88.9727 304.4201 0012733 357.1407   2.9669 13.50972716 60750
QIANFAN-14              
1 60392U 24140P   25298.52595076  .00000042  00000+0  46011-4 0  9997
2 60392  88.9706 304.3254 0016372 354.8807   5.2175 13.50972927 60769
QIANFAN-15              
1 60393U 24140Q   25298.46010529  .00000061  00000+0  75537-4 0  9992
2 60393  88.9729 304.2773 0011733 343.5036  16.5732 13.50970903 60749
QIANFAN-16              
1 60394U 24140R   25298.44793671  .00000033  00000+0  32019-4 0  9994
2 60394  88.9732 304.3973 0014483   0.0768   0.0383 13.50971892 60657
